[{"OBJECT_NAME":"STARLINK-30219","OBJECT_ID":"2023-113N","EPOCH":"2026-03-09T22:00:01.999584","MEAN_MOTION":15.21768121,"ECCENTRICITY":0.00012669,"INCLINATION":43.0005,"RA_OF_ASC_NODE":15.1383,"ARG_OF_PERICENTER":299.1137,"MEAN_ANOMALY":139.1859,"EPHEMERIS_TYPE":0,"CLASSIFICATION_TYPE":"U","NORAD_CAT_ID":57507,"ELEMENT_SET_NO":999,"REV_AT_EPOCH":572,"BSTAR":0.033850626,"MEAN_MOTION_DOT":0.00840089,"MEAN_MOTION_DDOT":0},{"OBJECT_NAME":"FLOCK 4G-2","OBJECT_ID":"2025-009BE","EPOCH":"2026-03-09T15:53:23.273952","MEAN_MOTION":15.2767526,"ECCENTRICITY":0.00031811,"INCLINATION":97.4044,"RA_OF_ASC_NODE":151.2221,"ARG_OF_PERICENTER":329.2677,"MEAN_ANOMALY":30.8376,"EPHEMERIS_TYPE":0,"CLASSIFICATION_TYPE":"U","NORAD_CAT_ID":62661,"ELEMENT_SET_NO":999,"REV_AT_EPOCH":12132,"BSTAR":0.00051068481,"MEAN_MOTION_DOT":0.00013752,"MEAN_MOTION_DDOT":0}]
